[
    {
        "Altitude(m)": 704709.3574567327,
        "Argument of Periapsis(deg)": 0.010251109067964361,
        "Eccentricity": 0.0,
        "Inclination(deg)": 45.0,
        "Latitude(deg)": -7.428211818965435,
        "Longitude(deg)": 61.75764663224531,
        "Mean Anomaly(deg)": -169.62010501726724,
        "RAAN(deg)": 334.99032325268763,
        "Satellite Name": "Constellation 1 1485",
        "Satellite Number": 1485,
        "Semi-Major Axis(m)": 7083131.272910544,
        "Time(s)": 171
    },
    {
        "Altitude(m)": 704718.3568341987,
        "Argument of Periapsis(deg)": 0.010311057074209765,
        "Eccentricity": 0.0,
        "Inclination(deg)": 45.0,
        "Latitude(deg)": -7.47103964765673,
        "Longitude(deg)": 61.797109306329425,
        "Mean Anomaly(deg)": -169.55940387701742,
        "RAAN(deg)": 334.9902666635221,
        "Satellite Name": "Constellation 1 1485",
        "Satellite Number": 1485,
        "Semi-Major Axis(m)": 7083131.272910544,
        "Time(s)": 172
    },
    {
        "Altitude(m)": 704727.3743572213,
        "Argument of Periapsis(deg)": 0.010371005080455171,
        "Eccentricity": 0.0,
        "Inclination(deg)": 45.0,
        "Latitude(deg)": -7.513863008913648,
        "Longitude(deg)": 61.836580374666006,
        "Mean Anomaly(deg)": -169.49870273676743,
        "RAAN(deg)": 334.9902100743565,
        "Satellite Name": "Constellation 1 1485",
        "Satellite Number": 1485,
        "Semi-Major Axis(m)": 7083131.272910544,
        "Time(s)": 173
    },
    {
        "Altitude(m)": 704736.4100036214,
        "Argument of Periapsis(deg)": 0.010430953086700577,
        "Eccentricity": 0.0,
        "Inclination(deg)": 45.0,
        "Latitude(deg)": -7.556681876469773,
        "Longitude(deg)": 61.8760598870889,
        "Mean Anomaly(deg)": -169.43800159651752,
        "RAAN(deg)": 334.9901534851909,
        "Satellite Name": "Constellation 1 1485",
        "Satellite Number": 1485,
        "Semi-Major Axis(m)": 7083131.272910544,
        "Time(s)": 174
    },
    {
        "Altitude(m)": 704745.4637511407,
        "Argument of Periapsis(deg)": 0.010490901092945983,
        "Eccentricity": 0.0,
        "Inclination(deg)": 45.0,
        "Latitude(deg)": -7.599496224043114,
        "Longitude(deg)": 61.9155478934502,
        "Mean Anomaly(deg)": -169.3773004562677,
        "RAAN(deg)": 334.99009689602536,
        "Satellite Name": "Constellation 1 1485",
        "Satellite Number": 1485,
        "Semi-Major Axis(m)": 7083131.272910544,
        "Time(s)": 175
    },
    {
        "Altitude(m)": 704754.5355774285,
        "Argument of Periapsis(deg)": 0.010550849099191389,
        "Eccentricity": 0.0,
        "Inclination(deg)": 45.0,
        "Latitude(deg)": -7.64230602533582,
        "Longitude(deg)": 61.95504444361966,
        "Mean Anomaly(deg)": -169.31659931601774,
        "RAAN(deg)": 334.9900403068598,
        "Satellite Name": "Constellation 1 1485",
        "Satellite Number": 1485,
        "Semi-Major Axis(m)": 7083131.272910544,
        "Time(s)": 176
    },
    {
        "Altitude(m)": 704763.625460056,
        "Argument of Periapsis(deg)": 0.010610797105436795,
        "Eccentricity": 0.0,
        "Inclination(deg)": 45.0,
        "Latitude(deg)": -7.685111254033835,
        "Longitude(deg)": 61.9945495874847,
        "Mean Anomaly(deg)": -169.2558981757678,
        "RAAN(deg)": 334.98998371769426,
        "Satellite Name": "Constellation 1 1485",
        "Satellite Number": 1485,
        "Semi-Major Axis(m)": 7083131.272910544,
        "Time(s)": 177
    },
    {
        "Altitude(m)": 704772.7333765026,
        "Argument of Periapsis(deg)": 0.0106707451116822,
        "Eccentricity": 0.0,
        "Inclination(deg)": 45.0,
        "Latitude(deg)": -7.727911883807194,
        "Longitude(deg)": 62.03406320685369,
        "Mean Anomaly(deg)": -169.19519703551794,
        "RAAN(deg)": 334.9899271285287,
        "Satellite Name": "Constellation 1 1485",
        "Satellite Number": 1485,
        "Semi-Major Axis(m)": 7083131.272910544,
        "Time(s)": 178
    },
    {
        "Altitude(m)": 704781.8593041683,
        "Argument of Periapsis(deg)": 0.010730693117927606,
        "Eccentricity": 0.0,
        "Inclination(deg)": 45.0,
        "Latitude(deg)": -7.770707888309351,
        "Longitude(deg)": 62.073585687844286,
        "Mean Anomaly(deg)": -169.13449589526806,
        "RAAN(deg)": 334.98987053936304,
        "Satellite Name": "Constellation 1 1485",
        "Satellite Number": 1485,
        "Semi-Major Axis(m)": 7083131.272910544,
        "Time(s)": 179
    },
    {
        "Altitude(m)": 704791.0032203639,
        "Argument of Periapsis(deg)": 0.01079064112417301,
        "Eccentricity": 0.0,
        "Inclination(deg)": 45.0,
        "Latitude(deg)": -7.813499241177774,
        "Longitude(deg)": 62.11311691230109,
        "Mean Anomaly(deg)": -169.07379475501818,
        "RAAN(deg)": 334.9898139501975,
        "Satellite Name": "Constellation 1 1485",
        "Satellite Number": 1485,
        "Semi-Major Axis(m)": 7083131.272910544,
        "Time(s)": 180
    },
    {
        "Altitude(m)": 704800.1651023139,
        "Argument of Periapsis(deg)": 0.010850589130418416,
        "Eccentricity": 0.0,
        "Inclination(deg)": 45.0,
        "Latitude(deg)": -7.856285916033644,
        "Longitude(deg)": 62.152656930184264,
        "Mean Anomaly(deg)": -169.01309361476825,
        "RAAN(deg)": 334.98975736103193,
        "Satellite Name": "Constellation 1 1485",
        "Satellite Number": 1485,
        "Semi-Major Axis(m)": 7083131.272910544,
        "Time(s)": 181
    },
    {
        "Altitude(m)": 704809.3449271633,
        "Argument of Periapsis(deg)": 0.01091053713666382,
        "Eccentricity": 0.0,
        "Inclination(deg)": 45.0,
        "Latitude(deg)": -7.8990678864812605,
        "Longitude(deg)": 62.19220579147178,
        "Mean Anomaly(deg)": -168.95239247451838,
        "RAAN(deg)": 334.9897007718664,
        "Satellite Name": "Constellation 1 1485",
        "Satellite Number": 1485,
        "Semi-Major Axis(m)": 7083131.272910544,
        "Time(s)": 182
    },
    {
        "Altitude(m)": 704818.5426719676,
        "Argument of Periapsis(deg)": 0.010970485142909228,
        "Eccentricity": 0.0,
        "Inclination(deg)": 45.0,
        "Latitude(deg)": -7.941845126108706,
        "Longitude(deg)": 62.23176354616055,
        "Mean Anomaly(deg)": -168.89169133426844,
        "RAAN(deg)": 334.98964418270083,
        "Satellite Name": "Constellation 1 1485",
        "Satellite Number": 1485,
        "Semi-Major Axis(m)": 7083131.272910544,
        "Time(s)": 183
    },
    {
        "Altitude(m)": 704827.758313698,
        "Argument of Periapsis(deg)": 0.011030433149154634,
        "Eccentricity": 0.0,
        "Inclination(deg)": 45.0,
        "Latitude(deg)": -7.984617608487125,
        "Longitude(deg)": 62.271330244265684,
        "Mean Anomaly(deg)": -168.83099019401854,
        "RAAN(deg)": 334.9895875935352,
        "Satellite Name": "Constellation 1 1485",
        "Satellite Number": 1485,
        "Semi-Major Axis(m)": 7083131.272910544,
        "Time(s)": 184
    },
    {
        "Altitude(m)": 704836.9918292416,
        "Argument of Periapsis(deg)": 0.01109038115540004,
        "Eccentricity": 0.0,
        "Inclination(deg)": 45.0,
        "Latitude(deg)": -8.027385307171048,
        "Longitude(deg)": 62.31090576772394,
        "Mean Anomaly(deg)": -168.7702890537687,
        "RAAN(deg)": 334.98953100436967,
        "Satellite Name": "Constellation 1 1485",
        "Satellite Number": 1485,
        "Semi-Major Axis(m)": 7083131.272910544,
        "Time(s)": 185
    },
    {
        "Altitude(m)": 704846.243195402,
        "Argument of Periapsis(deg)": 0.011150329161645444,
        "Eccentricity": 0.0,
        "Inclination(deg)": 45.0,
        "Latitude(deg)": -8.07014819569782,
        "Longitude(deg)": 62.35049050278199,
        "Mean Anomaly(deg)": -168.70958791351873,
        "RAAN(deg)": 334.9894744152041,
        "Satellite Name": "Constellation 1 1485",
        "Satellite Number": 1485,
        "Semi-Major Axis(m)": 7083131.272910544,
        "Time(s)": 186
    },
    {
        "Altitude(m)": 704855.5123888981,
        "Argument of Periapsis(deg)": 0.01121027716789085,
        "Eccentricity": 0.0,
        "Inclination(deg)": 45.0,
        "Latitude(deg)": -8.112906247588066,
        "Longitude(deg)": 62.39008433141403,
        "Mean Anomaly(deg)": -168.64888677326888,
        "RAAN(deg)": 334.98941782603856,
        "Satellite Name": "Constellation 1 1485",
        "Satellite Number": 1485,
        "Semi-Major Axis(m)": 7083131.272910544,
        "Time(s)": 187
    },
    {
        "Altitude(m)": 704864.799386359,
        "Argument of Periapsis(deg)": 0.011270225174136258,
        "Eccentricity": 0.0,
        "Inclination(deg)": 45.0,
        "Latitude(deg)": -8.155659436345308,
        "Longitude(deg)": 62.429687303710345,
        "Mean Anomaly(deg)": -168.58818563301895,
        "RAAN(deg)": 334.989361236873,
        "Satellite Name": "Constellation 1 1485",
        "Satellite Number": 1485,
        "Semi-Major Axis(m)": 7083131.272910544,
        "Time(s)": 188
    },
    {
        "Altitude(m)": 704874.1041643432,
        "Argument of Periapsis(deg)": 0.011330173180381662,
        "Eccentricity": 0.0,
        "Inclination(deg)": 45.0,
        "Latitude(deg)": -8.198407735455838,
        "Longitude(deg)": 62.46929946978006,
        "Mean Anomaly(deg)": -168.52748449276908,
        "RAAN(deg)": 334.9893046477074,
        "Satellite Name": "Constellation 1 1485",
        "Satellite Number": 1485,
        "Semi-Major Axis(m)": 7083131.272910544,
        "Time(s)": 189
    }
]